{
    "links": {
        "self": "http://www.neowsapp.com/rest/v1/neo/3838040?api_key=iIulBulltgU6a56xZRHN4H3l9WmuAYTsLGpBGhQ2"
    },
    "id": "3838040",
    "neo_reference_id": "3838040",
    "name": "(2019 BY3)",
    "designation": "2019 BY3",
    "nasa_jpl_url": "http://ssd.jpl.nasa.gov/sbdb.cgi?sstr=3838040",
    "absolute_magnitude_h": 27.4,
    "estimated_diameter": {
        "kilometers": {
            "estimated_diameter_min": 0.0088014652,
            "estimated_diameter_max": 0.0196806745
        },
        "meters": {
            "estimated_diameter_min": 8.801465209,
            "estimated_diameter_max": 19.6806745089
        },
        "miles": {
            "estimated_diameter_min": 0.0054689752,
            "estimated_diameter_max": 0.0122290004
        },
        "feet": {
            "estimated_diameter_min": 28.8761991163,
            "estimated_diameter_max": 64.5691441559
        }
    },
    "is_potentially_hazardous_asteroid": false,
    "close_approach_data": [
        {
            "close_approach_date": "2019-01-29",
            "close_approach_date_full": "2019-Jan-29 18:13",
            "epoch_date_close_approach": 1548785580000,
            "relative_velocity": {
                "kilometers_per_second": "8.6722486483",
                "kilometers_per_hour": "31220.0951339544",
                "miles_per_hour": "19398.9530014285"
            },
            "miss_distance": {
                "astronomical": "0.0128445376",
                "lunar": "4.9965251264",
                "kilometers": "1921515.466094912",
                "miles": "1193974.3453053056"
            },
            "orbiting_body": "Earth"
        },
        {
            "close_approach_date": "2083-12-29",
            "close_approach_date_full": "2083-Dec-29 21:53",
            "epoch_date_close_approach": 3597342780000,
            "relative_velocity": {
                "kilometers_per_second": "18.5516433999",
                "kilometers_per_hour": "66785.9162397869",
                "miles_per_hour": "41498.1711213276"
            },
            "miss_distance": {
                "astronomical": "0.3644192609",
                "lunar": "141.7590924901",
                "kilometers": "54516345.217614283",
                "miles": "33874886.1188837854"
            },
            "orbiting_body": "Earth"
        }
    ],
    "orbital_data": {
        "orbit_id": "3",
        "orbit_determination_date": "2019-02-01 08:35:16",
        "first_observation_date": "2019-01-28",
        "last_observation_date": "2019-01-30",
        "data_arc_in_days": 2,
        "observations_used": 26,
        "orbit_uncertainty": "8",
        "minimum_orbit_intersection": ".0125734",
        "jupiter_tisserand_invariant": "3.988",
        "epoch_osculation": "2458512.5",
        "eccentricity": ".446142765773379",
        "semi_major_axis": "1.757493946105914",
        "inclination": "9.179286262418589",
        "ascending_node_longitude": "306.9877897307528",
        "orbital_period": "851.0188571810952",
        "perihelion_distance": ".9734007361602518",
        "perihelion_argument": "204.412401750537",
        "aphelion_distance": "2.541587156051577",
        "perihelion_time": "2458531.323598366230",
        "mean_anomaly": "352.0371971141871",
        "mean_motion": ".423022353690798",
        "equinox": "J2000",
        "orbit_class": {
            "orbit_class_type": "APO",
            "orbit_class_description": "Near-Earth asteroid orbits which cross the Earth’s orbit similar to that of 1862 Apollo",
            "orbit_class_range": "a (semi-major axis) > 1.0 AU; q (perihelion) < 1.017 AU"
        }
    },
    "is_sentry_object": false
}